[
    {
        "addr1": "3246 Alaska Hwy",
        "addr2": null,
        "city": "Fort Nelson",
        "id": "200070",
        "postalCode": "V0C 1C0",
        "province": "BC",
        "type": "Field Office"
    },
    {
        "addr1": "4764 Jade St",
        "addr2": null,
        "city": "Richmond",
        "id": "200071",
        "postalCode": "V7E 2E4",
        "province": "BC",
        "type": "Bus Yard"
    },
    {
        "addr1": "2076 James Street",
        "addr2": null,
        "city": "Aldergrove",
        "id": "200072",
        "postalCode": "V5G 4S4",
        "province": "BC",
        "type": "Field Office"
    },
    {
        "addr1": "3617 Essendene Avenue",
        "addr2": null,
        "city": "Abbotsford",
        "id": "200073",
        "postalCode": "V2S 2H7",
        "province": "BC",
        "type": "Headquarters"
    },
    {
        "addr1": "4923 Stum Lake Road",
        "addr2": null,
        "city": "Tatla Lake",
        "id": "200074",
        "postalCode": "V0L 1V0",
        "province": "BC",
        "type": "Bus Yard"
    },
    {
        "addr1": "2076 James Street",
        "addr2": null,
        "city": "Aldergrove",
        "id": "200075",
        "postalCode": "V5G 4S4",
        "province": "BC",
        "type": "Bus Yard"
    },
    {
        "addr1": "4528 Nootka Street",
        "addr2": null,
        "city": "Vancouver",
        "id": "200076",
        "postalCode": "V5M 3M5",
        "province": "BC",
        "type": "Field Office"
    },
    {
        "addr1": "3967 Queens Bay",
        "addr2": null,
        "city": "Fauquier",
        "id": "200077",
        "postalCode": "V0G 1K0",
        "province": "BC",
        "type": "Field Office"
    },
    {
        "addr1": "2191 Blind Bay Road",
        "addr2": null,
        "city": "Clearwater",
        "id": "200078",
        "postalCode": "V0E 1N0",
        "province": "BC",
        "type": "Bus Yard"
    },
    {
        "addr1": "2553 Holdom Avenue",
        "addr2": null,
        "city": "Surrey",
        "id": "200079",
        "postalCode": "V3T 4Y5",
        "province": "BC",
        "type": "Headquarters"
    },
    {
        "addr1": "3711 Stum Lake Road",
        "addr2": null,
        "city": "Riske Creek",
        "id": "200080",
        "postalCode": "V0L 1T0",
        "province": "BC",
        "type": "Headquarters"
    },
    {
        "addr1": "223 Brew Creek Rd",
        "addr2": null,
        "city": "Whistler",
        "id": "200081",
        "postalCode": "V0N 1B0",
        "province": "BC",
        "type": "Headquarters"
    },
    {
        "addr1": "2814 Scotts Lane",
        "addr2": null,
        "city": "Youbou",
        "id": "200082",
        "postalCode": "V0R 3E0",
        "province": "BC",
        "type": "Headquarters"
    },
    {
        "addr1": "2890 Burdett Avenue",
        "addr2": null,
        "city": "Victoria",
        "id": "200083",
        "postalCode": "V8Y 1Y7",
        "province": "BC",
        "type": "Bus Yard"
    },
    {
        "addr1": "4528 Nootka Street",
        "addr2": null,
        "city": "Vancouver",
        "id": "200084",
        "postalCode": "V5M 3M5",
        "province": "BC",
        "type": "Field Office"
    },
    {
        "addr1": "959 Haaglund Rd",
        "addr2": null,
        "city": "Lower Post",
        "id": "200085",
        "postalCode": "V0H 0H0",
        "province": "BC",
        "type": "Headquarters"
    },
    {
        "addr1": "2805 Burdett Avenue",
        "addr2": null,
        "city": "Victoria",
        "id": "200086",
        "postalCode": "V8W 1B2",
        "province": "BC",
        "type": "Field Office"
    },
    {
        "addr1": "270 Queens Bay",
        "addr2": null,
        "city": "Nakusp",
        "id": "200087",
        "postalCode": "V0G 1R0",
        "province": "BC",
        "type": "Headquarters"
    },
    {
        "addr1": "3694 Lake City Way",
        "addr2": null,
        "city": "Burnaby",
        "id": "200088",
        "postalCode": "V5A 2Z6",
        "province": "BC",
        "type": "Headquarters"
    },
    {
        "addr1": "4638 Robson St",
        "addr2": null,
        "city": "Vancouver",
        "id": "200089",
        "postalCode": "V6B 3K9",
        "province": "BC",
        "type": "Bus Yard"
    },
    {
        "addr1": "2031 Blind Bay Road",
        "addr2": null,
        "city": "Sicamous",
        "id": "200090",
        "postalCode": "V0E 2V0",
        "province": "BC",
        "type": "Headquarters"
    },
    {
        "addr1": "4173 James Street",
        "addr2": null,
        "city": "Burnaby",
        "id": "200091",
        "postalCode": "V5G 4W7",
        "province": "BC",
        "type": "Bus Yard"
    },
    {
        "addr1": "3617 Essendene Avenue",
        "addr2": null,
        "city": "Abbotsford",
        "id": "200092",
        "postalCode": "V2S 2H7",
        "province": "BC",
        "type": "Headquarters"
    },
    {
        "addr1": "510 Burdett Avenue",
        "addr2": null,
        "city": "Victoria",
        "id": "200093",
        "postalCode": "V8W 1B2",
        "province": "BC",
        "type": "Bus Yard"
    },
    {
        "addr1": "2261 Blanshard",
        "addr2": null,
        "city": "Victoria",
        "id": "200094",
        "postalCode": "V8W 2H9",
        "province": "BC",
        "type": "Bus Yard"
    },
    {
        "addr1": "4761 King George Hwy",
        "addr2": null,
        "city": "Surrey",
        "id": "200095",
        "postalCode": "V3W 4E3",
        "province": "BC",
        "type": "Field Office"
    },
    {
        "addr1": "1593 102nd Avenue",
        "addr2": null,
        "city": "Fort St John",
        "id": "200096",
        "postalCode": "V1J 3Y7",
        "province": "BC",
        "type": "Field Office"
    },
    {
        "addr1": "1323 Cordova Street",
        "addr2": null,
        "city": "Vancouver",
        "id": "200097",
        "postalCode": "V6B 1E1",
        "province": "BC",
        "type": "Bus Yard"
    },
    {
        "addr1": "1730 Jade St",
        "addr2": null,
        "city": "West Vancouver",
        "id": "200098",
        "postalCode": "V7T 2W4",
        "province": "BC",
        "type": "Bus Yard"
    },
    {
        "addr1": "2882 Carlson Road",
        "addr2": null,
        "city": "Prince George",
        "id": "200099",
        "postalCode": "V2L 5E5",
        "province": "BC",
        "type": "Headquarters"
    },
    {
        "addr1": "4397 Burdett Avenue",
        "addr2": null,
        "city": "Terrace",
        "id": "200100",
        "postalCode": "V8G 1S2",
        "province": "BC",
        "type": "Bus Yard"
    },
    {
        "addr1": "2519 St George Street",
        "addr2": null,
        "city": "Vancouver",
        "id": "200101",
        "postalCode": "V5T 1Z7",
        "province": "BC",
        "type": "Headquarters"
    },
    {
        "addr1": "2882 Carlson Road",
        "addr2": null,
        "city": "Prince George",
        "id": "200102",
        "postalCode": "V2L 5E5",
        "province": "BC",
        "type": "Field Office"
    },
    {
        "addr1": "2162 King George Hwy",
        "addr2": null,
        "city": "Surrey",
        "id": "200103",
        "postalCode": "V3W 4E3",
        "province": "BC",
        "type": "Bus Yard"
    },
    {
        "addr1": "2183 Kinchant St",
        "addr2": null,
        "city": "Prince George",
        "id": "200104",
        "postalCode": "V2N 2S6",
        "province": "BC",
        "type": "Field Office"
    },
    {
        "addr1": "3711 Stum Lake Road",
        "addr2": null,
        "city": "Riske Creek",
        "id": "200105",
        "postalCode": "V0L 1T0",
        "province": "BC",
        "type": "Bus Yard"
    },
    {
        "addr1": "4112 Burdett Avenue",
        "addr2": null,
        "city": "Victoria",
        "id": "200106",
        "postalCode": "V8W 1B2",
        "province": "BC",
        "type": "Bus Yard"
    },
    {
        "addr1": "3420 Burdett Avenue",
        "addr2": null,
        "city": "Victoria",
        "id": "200107",
        "postalCode": "V8W IE9",
        "province": "BC",
        "type": "Bus Yard"
    },
    {
        "addr1": "1888 Findlay Creek Road",
        "addr2": null,
        "city": "Grasmere",
        "id": "200108",
        "postalCode": "V0B 1R0",
        "province": "BC",
        "type": "Bus Yard"
    },
    {
        "addr1": "104 Roger Street",
        "addr2": null,
        "city": "Comox",
        "id": "200109",
        "postalCode": "V9N 6A1",
        "province": "BC",
        "type": "Field Office"
    },
    {
        "addr1": "232 Cordova Street",
        "addr2": null,
        "city": "Vancouver",
        "id": "200110",
        "postalCode": "V6B 1E1",
        "province": "BC",
        "type": "Field Office"
    },
    {
        "addr1": "4403 Brew Creek Rd",
        "addr2": null,
        "city": "Whistler",
        "id": "200111",
        "postalCode": "V0N 1B0",
        "province": "BC",
        "type": "Headquarters"
    },
    {
        "addr1": "1593 102nd Avenue",
        "addr2": null,
        "city": "Fort St John",
        "id": "200112",
        "postalCode": "V1J 3Y7",
        "province": "BC",
        "type": "Field Office"
    },
    {
        "addr1": "2714 Russell Avenue",
        "addr2": null,
        "city": "Langley",
        "id": "200113",
        "postalCode": "V4X 1J7",
        "province": "BC",
        "type": "Headquarters"
    },
    {
        "addr1": "1323 Cordova Street",
        "addr2": null,
        "city": "Vancouver",
        "id": "200114",
        "postalCode": "V6B 1E1",
        "province": "BC",
        "type": "Bus Yard"
    },
    {
        "addr1": "3418 Brew Creek Rd",
        "addr2": null,
        "city": "Port Hardy",
        "id": "200115",
        "postalCode": "V0N 2P0",
        "province": "BC",
        "type": "Bus Yard"
    },
    {
        "addr1": "3795 Burdett Avenue",
        "addr2": null,
        "city": "Victoria",
        "id": "200116",
        "postalCode": "V8Y 1Y7",
        "province": "BC",
        "type": "Field Office"
    },
    {
        "addr1": "2881 Alaska Hwy",
        "addr2": null,
        "city": "Fort Nelson",
        "id": "200117",
        "postalCode": "V0C 1C0",
        "province": "BC",
        "type": "Field Office"
    },
    {
        "addr1": "2824 Hastings Street",
        "addr2": null,
        "city": "Vancouver",
        "id": "200118",
        "postalCode": "V6C 1B4",
        "province": "BC",
        "type": "Headquarters"
    },
    {
        "addr1": "332 Burdett Avenue",
        "addr2": null,
        "city": "Victoria",
        "id": "200119",
        "postalCode": "V8W 1B2",
        "province": "BC",
        "type": "Bus Yard"
    },
    {
        "addr1": "3109 Wellington Ave",
        "addr2": null,
        "city": "Chilliwack",
        "id": "200120",
        "postalCode": "V2P 2M1",
        "province": "BC",
        "type": "Bus Yard"
    },
    {
        "addr1": "1547 Roger Street",
        "addr2": null,
        "city": "Port Alberni",
        "id": "200121",
        "postalCode": "V9Y 4M8",
        "province": "BC",
        "type": "Field Office"
    },
    {
        "addr1": "3795 Burdett Avenue",
        "addr2": null,
        "city": "Victoria",
        "id": "200122",
        "postalCode": "V8Y 1Y7",
        "province": "BC",
        "type": "Field Office"
    },
    {
        "addr1": "4256 Kinchant St",
        "addr2": null,
        "city": "Williams Lake",
        "id": "200123",
        "postalCode": "V2G 1C4",
        "province": "BC",
        "type": "Field Office"
    },
    {
        "addr1": "2383 Brew Creek Rd",
        "addr2": null,
        "city": "Whistler",
        "id": "200124",
        "postalCode": "V0N 1B0",
        "province": "BC",
        "type": "Field Office"
    },
    {
        "addr1": "2277 James Street",
        "addr2": null,
        "city": "Aldergrove",
        "id": "200125",
        "postalCode": "V5G 4S4",
        "province": "BC",
        "type": "Bus Yard"
    },
    {
        "addr1": "2076 James Street",
        "addr2": null,
        "city": "Aldergrove",
        "id": "200126",
        "postalCode": "V5G 4S4",
        "province": "BC",
        "type": "Field Office"
    },
    {
        "addr1": "4963 Kinchant St",
        "addr2": null,
        "city": "Kamloops",
        "id": "200127",
        "postalCode": "V2C 1Y1",
        "province": "BC",
        "type": "Field Office"
    },
    {
        "addr1": "1654 Roger Street",
        "addr2": null,
        "city": "Courtenay",
        "id": "200128",
        "postalCode": "V9N 2J6",
        "province": "BC",
        "type": "Bus Yard"
    },
    {
        "addr1": "4879 Roger Street",
        "addr2": null,
        "city": "Nanaimo",
        "id": "200129",
        "postalCode": "V9R 5H4",
        "province": "BC",
        "type": "Headquarters"
    },
    {
        "addr1": "4923 Stum Lake Road",
        "addr2": null,
        "city": "Tatla Lake",
        "id": "200130",
        "postalCode": "V0L 1V0",
        "province": "BC",
        "type": "Field Office"
    },
    {
        "addr1": "2919 Old Spallumcheen Rd",
        "addr2": null,
        "city": "Atlin",
        "id": "200131",
        "postalCode": "V0W 1A0",
        "province": "BC",
        "type": "Bus Yard"
    },
    {
        "addr1": "3967 Queens Bay",
        "addr2": null,
        "city": "Fauquier",
        "id": "200132",
        "postalCode": "V0G 1K0",
        "province": "BC",
        "type": "Headquarters"
    },
    {
        "addr1": "2487 Kinchant St",
        "addr2": null,
        "city": "Kamloops",
        "id": "200133",
        "postalCode": "V2S 5R8",
        "province": "BC",
        "type": "Headquarters"
    },
    {
        "addr1": "1019 Hardy Street",
        "addr2": null,
        "city": "Kelowna",
        "id": "200134",
        "postalCode": "V1Y 8H2",
        "province": "BC",
        "type": "Field Office"
    },
    {
        "addr1": "4201 Jade St",
        "addr2": null,
        "city": "West Vancouver",
        "id": "200135",
        "postalCode": "V7V 1Y8",
        "province": "BC",
        "type": "Bus Yard"
    },
    {
        "addr1": "1547 Roger Street",
        "addr2": null,
        "city": "Port Alberni",
        "id": "200136",
        "postalCode": "V9Y 4M8",
        "province": "BC",
        "type": "Headquarters"
    }
]